[{"OBJECT_NAME":"STARLINK-32160","OBJECT_ID":"2024-131G","EPOCH":"2026-03-09T08:33:02.040768","MEAN_MOTION":15.30196385,"ECCENTRICITY":0.00013205,"INCLINATION":53.1607,"RA_OF_ASC_NODE":54.2509,"ARG_OF_PERICENTER":84.745,"MEAN_ANOMALY":275.3702,"EPHEMERIS_TYPE":0,"CLASSIFICATION_TYPE":"U","NORAD_CAT_ID":60261,"ELEMENT_SET_NO":999,"REV_AT_EPOCH":9171,"BSTAR":-9.5980647e-5,"MEAN_MOTION_DOT":-3.2e-5,"MEAN_MOTION_DDOT":0},{"OBJECT_NAME":"SL-12 DEB","OBJECT_ID":"1992-047T","EPOCH":"2026-03-09T10:45:59.878944","MEAN_MOTION":8.55455658,"ECCENTRICITY":0.32405346,"INCLINATION":64.7613,"RA_OF_ASC_NODE":212.5658,"ARG_OF_PERICENTER":352.2555,"MEAN_ANOMALY":3.7896,"EPHEMERIS_TYPE":0,"CLASSIFICATION_TYPE":"U","NORAD_CAT_ID":28584,"ELEMENT_SET_NO":999,"REV_AT_EPOCH":4663,"BSTAR":0.034604627,"MEAN_MOTION_DOT":0.00076637,"MEAN_MOTION_DDOT":0}]
